OBJECT_NAME,OBJECT_ID,EPOCH,MEAN_MOTION,ECCENTRICITY,INCLINATION,RA_OF_ASC_NODE,ARG_OF_PERICENTER,MEAN_ANOMALY,EPHEMERIS_TYPE,CLASSIFICATION_TYPE,NORAD_CAT_ID,ELEMENT_SET_NO,REV_AT_EPOCH,BSTAR,MEAN_MOTION_DOT,MEAN_MOTION_DDOT
IRIDIUM 163,2018-061G,2026-06-25T03:59:18.498048,14.34217532,.0002207,86.3955,53.3855,83.6265,276.5182,0,U,43575,999,41452,.23197E-4,.85E-6,0
IRIDIUM 156,2018-061H,2026-06-25T03:22:46.989696,14.34218178,.0002007,86.3955,53.4034,84.9000,275.2425,0,U,43576,999,41451,.71537E-4,.22E-5,0
IRIDIUM 164,2018-061J,2026-06-25T02:55:22.473696,14.34218069,.0002187,86.3956,53.4518,89.6565,270.4881,0,U,43577,999,41455,.27884E-4,.98E-6,0
IRIDIUM 159,2018-061K,2026-06-25T03:50:10.495680,14.34217383,.0002123,86.3949,53.3724,83.6836,276.4602,0,U,43578,999,41452,-.95293E-5,-.7E-7,0
IRIDIUM 180,2019-002A,2026-06-25T00:28:30.918720,14.34217516,.0002132,86.3969,350.3225,89.1802,270.9638,0,U,43922,999,39011,-.51119E-6,.18E-6,0
IRIDIUM 176,2019-002B,2026-06-24T23:24:15.943392,14.72223285,.0002426,86.6088,350.2836,88.5204,271.6291,0,U,43923,999,40039,.87378E-4,.575E-5,0
IRIDIUM 168,2019-002C,2026-06-25T00:19:22.365120,14.34217024,.0002224,86.3974,350.4025,90.1496,269.9954,0,U,43924,999,39009,.81702E-4,.249E-5,0
IRIDIUM 173,2019-002D,2026-06-25T00:01:06.960000,14.34217867,.0002157,86.3972,350.2964,88.2466,271.8977,0,U,43925,999,39007,.1921E-4,.74E-6,0
IRIDIUM 169,2019-002E,2026-06-25T02:41:20.408064,14.38607104,.000169,86.4221,21.8794,80.5451,279.5938,0,U,43926,999,39136,.11641E-3,.376E-5,0
IRIDIUM 172,2019-002F,2026-06-24T23:51:58.757184,14.34217023,.0002251,86.3971,350.3067,90.2889,269.8565,0,U,43927,999,39008,.58892E-5,.36E-6,0
IRIDIUM 175,2019-002G,2026-06-24T01:38:55.330080,14.43615979,.00034028,86.4515,287.6441,160.3298,199.8035,0,U,43928,999,39997,.69613491E-4,.256E-5,0
IRIDIUM 171,2019-002H,2026-06-25T04:25:58.893888,14.34217541,.0001949,86.3978,350.5346,93.2388,266.9030,0,U,43929,999,39010,-.55358E-5,.4E-7,0
IRIDIUM 170,2019-002J,2026-06-25T04:26:47.247648,14.72224992,.0002547,86.6091,350.1978,86.2953,273.8556,0,U,43930,999,40043,.14661E-3,.948E-5,0
IRIDIUM 167,2019-002K,2026-06-25T04:16:50.860416,14.34217680,.0001866,86.3968,350.2526,96.7233,263.4176,0,U,43931,999,39010,-.15274E-5,.16E-6,0
IRIDIUM 181,2023-068S,2026-06-25T03:34:04.866816,14.43310236,.00024,86.4492,53.4623,87.9874,272.1602,0,U,56726,999,16358,.73928E-4,.269E-5,0
IRIDIUM 177,2023-068T,2026-06-25T03:56:41.280288,14.80226431,.0002373,86.1969,325.0021,89.1611,270.9881,0,U,56727,999,16754,.13143E-3,.1025E-4,0
IRIDIUM 174,2023-068U,2026-06-24T23:15:24.264576,14.72231919,.000246,86.6100,350.4364,80.5012,279.6483,0,U,56728,999,16716,.15079E-3,.975E-5,0
IRIDIUM 178,2023-068V,2026-06-25T00:26:17.676096,14.80245996,.000256,86.6534,22.0866,84.3530,275.7983,0,U,56729,999,16752,.11636E-3,.911E-5,0
IRIDIUM 179,2023-068W,2026-06-25T01:55:55.000416,14.80227567,.0002439,86.6769,31.0642,89.7326,270.4175,0,U,56730,999,16753,.50026E-4,.406E-5,0
